[{"OBJECT_NAME":"ONEWEB-0564","OBJECT_ID":"2023-029F","EPOCH":"2026-03-09T15:59:00.116448","MEAN_MOTION":13.2077091,"ECCENTRICITY":0.00013335,"INCLINATION":87.916,"RA_OF_ASC_NODE":294.334,"ARG_OF_PERICENTER":73.3631,"MEAN_ANOMALY":286.7649,"EPHEMERIS_TYPE":0,"CLASSIFICATION_TYPE":"U","NORAD_CAT_ID":55801,"ELEMENT_SET_NO":999,"REV_AT_EPOCH":14801,"BSTAR":-0.00033534705,"MEAN_MOTION_DOT":-1.23e-6,"MEAN_MOTION_DDOT":0},{"OBJECT_NAME":"NOVA 1","OBJECT_ID":"1981-044A","EPOCH":"2026-03-09T23:44:36.716640","MEAN_MOTION":13.23287337,"ECCENTRICITY":0.00130269,"INCLINATION":89.842,"RA_OF_ASC_NODE":90.1115,"ARG_OF_PERICENTER":217.6651,"MEAN_ANOMALY":201.8697,"EPHEMERIS_TYPE":0,"CLASSIFICATION_TYPE":"U","NORAD_CAT_ID":12458,"ELEMENT_SET_NO":999,"REV_AT_EPOCH":16340,"BSTAR":5.1340553e-5,"MEAN_MOTION_DOT":3.1e-7,"MEAN_MOTION_DDOT":0}]
